[{"OBJECT_NAME":"YAOGAN-30 01","OBJECT_ID":"2016-029A","EPOCH":"2026-03-09T22:16:48.722016","MEAN_MOTION":14.76274788,"ECCENTRICITY":0.00157389,"INCLINATION":97.9148,"RA_OF_ASC_NODE":120.91,"ARG_OF_PERICENTER":189.8779,"MEAN_ANOMALY":170.2124,"EPHEMERIS_TYPE":0,"CLASSIFICATION_TYPE":"U","NORAD_CAT_ID":41473,"ELEMENT_SET_NO":999,"REV_AT_EPOCH":52902,"BSTAR":0.00014079797,"MEAN_MOTION_DOT":9.27e-6,"MEAN_MOTION_DDOT":0},{"OBJECT_NAME":"ATLAS CENTAUR R\/B","OBJECT_ID":"1972-065B","EPOCH":"2026-03-09T23:07:49.099872","MEAN_MOTION":14.7768761,"ECCENTRICITY":0.00335028,"INCLINATION":35.0017,"RA_OF_ASC_NODE":304.1483,"ARG_OF_PERICENTER":11.1121,"MEAN_ANOMALY":349.0314,"EPHEMERIS_TYPE":0,"CLASSIFICATION_TYPE":"U","NORAD_CAT_ID":6155,"ELEMENT_SET_NO":999,"REV_AT_EPOCH":84130,"BSTAR":0.00021464203,"MEAN_MOTION_DOT":1.553e-5,"MEAN_MOTION_DDOT":0}]
